STARLINK-32779          
1 63030U 25034B   26068.71141832  .00040771  00000+0  13815-2 0  9993
2 63030  53.1574 271.2683 0001004  65.7568 294.3537 15.30191894 58906
TEVEL2-2                
1 63219U 25052K   26068.64848259  .00020339  00000+0  69428-3 0  9991
2 63219  97.3987 324.7700 0004693 105.7930 254.3828 15.30343745 54855
